{
  "type": "FeatureCollection",
  "features": [
    {
      "type": "Feature",
      "properties": {
        "norad_id": 54741,
        "name": "GALAXY 35 (G-35)",
        "group": "intelsat",
        "lat": 0.019839075010719475,
        "lon": 157.0206855021679,
        "alt_km": 35790.118648909796,
        "timestamp": "2025-12-18T10:51:25.457775+00:00",
        "meta_object_name": "GALAXY 35 (G-35)",
        "meta_object_id": "2022-170A",
        "meta_epoch": "2025-12-17T12:54:21.227616",
        "meta_mean_motion": 1.0027101,
        "meta_eccentricity": 0.00021355,
        "meta_inclination": 0.0185,
        "meta_ra_of_asc_node": 16.6806,
        "meta_arg_of_pericenter": 255.1327,
        "meta_mean_anomaly": 275.0748,
        "meta_ephemeris_type": 0,
        "meta_classification_type": "U",
        "meta_norad_cat_id": 54741,
        "meta_element_set_no": 999,
        "meta_rev_at_epoch": 1107,
        "meta_bstar": 0,
        "meta_mean_motion_dot": 0,
        "meta_mean_motion_ddot": 0,
        "tle_line1": "1 54741U 22170A   25351.53774569  .00000000  00000+0  00000+0 0  9993",
        "tle_line2": "2 54741   0.0185  16.6806 0002135 255.1327 275.0748  1.00271010 11074"
      },
      "geometry": {
        "type": "Point",
        "coordinates": [
          157.0206855021679,
          0.019839075010719475
        ]
      }
    },
    {
      "type": "Feature",
      "properties": {
        "norad_id": 54742,
        "name": "GALAXY 36 (G-36)",
        "group": "intelsat",
        "lat": -0.010294225819695023,
        "lon": 161.16302327373214,
        "alt_km": 35787.1936059078,
        "timestamp": "2025-12-18T10:51:25.457787+00:00",
        "meta_object_name": "GALAXY 36 (G-36)",
        "meta_object_id": "2022-170B",
        "meta_epoch": "2025-12-17T14:36:52.642368",
        "meta_mean_motion": 1.0027201,
        "meta_eccentricity": 2.709e-05,
        "meta_inclination": 0.0136,
        "meta_ra_of_asc_node": 286.7849,
        "meta_arg_of_pericenter": 61.0617,
        "meta_mean_anomaly": 228.8591,
        "meta_ephemeris_type": 0,
        "meta_classification_type": "U",
        "meta_norad_cat_id": 54742,
        "meta_element_set_no": 999,
        "meta_rev_at_epoch": 1095,
        "meta_bstar": 0,
        "meta_mean_motion_dot": -1.6e-06,
        "meta_mean_motion_ddot": 0,
        "tle_line1": "1 54742U 22170B   25351.60894262 -.00000160  00000+0  00000+0 0  9993",
        "tle_line2": "2 54742   0.0136 286.7849 0000270  61.0617 228.8591  1.00272010 10951"
      },
      "geometry": {
        "type": "Point",
        "coordinates": [
          161.16302327373214,
          -0.010294225819695023
        ]
      }
    },
    {
      "type": "Feature",
      "properties": {
        "norad_id": 57493,
        "name": "GALAXY 37 (G-37)",
        "group": "intelsat",
        "lat": 0.03857380673281548,
        "lon": 123.16814609617617,
        "alt_km": 35792.69736036129,
        "timestamp": "2025-12-18T10:51:25.457799+00:00",
        "meta_object_name": "GALAXY 37 (G-37)",
        "meta_object_id": "2023-112A",
        "meta_epoch": "2025-12-15T23:03:25.663680",
        "meta_mean_motion": 1.00272925,
        "meta_eccentricity": 0.00019988,
        "meta_inclination": 0.0242,
        "meta_ra_of_asc_node": 56.2601,
        "meta_arg_of_pericenter": 214.3075,
        "meta_mean_anomaly": 33.1555,
        "meta_ephemeris_type": 0,
        "meta_classification_type": "U",
        "meta_norad_cat_id": 57493,
        "meta_element_set_no": 999,
        "meta_rev_at_epoch": 870,
        "meta_bstar": 0,
        "meta_mean_motion_dot": 7e-07,
        "meta_mean_motion_ddot": 0,
        "tle_line1": "1 57493U 23112A   25349.96071370  .00000070  00000+0  00000+0 0  9998",
        "tle_line2": "2 57493   0.0242  56.2601 0001998 214.3075  33.1555  1.00272925  8702"
      },
      "geometry": {
        "type": "Point",
        "coordinates": [
          123.16814609617617,
          0.03857380673281548
        ]
      }
    }
  ]
}